{"type": "FeatureCollection", "features": [ {"type": "Feature", "properties": {"norad_id": 28659, "name": "DIRECTV 8", "group": "intelsat", "lat": -0.01985869160664793, "lon": -68.51531354822971, "alt_km": 35774.21122178501, "timestamp": "2025-12-16T21:38:56.837591+00:00", "meta": {"OBJECT_NAME": "DIRECTV 8", "OBJECT_ID": "2005-019A", "EPOCH": "2025-12-16T08:41:41.227008", "MEAN_MOTION": 1.00272712, "ECCENTRICITY": 0.00028805, "INCLINATION": 0.0155, "RA_OF_ASC_NODE": 313.2007, "ARG_OF_PERICENTER": 320.2388, "MEAN_ANOMALY": 183.1979, "EPHEMERIS_TYPE": 0, "CLASSIFICATION_TYPE": "U", "NORAD_CAT_ID": 28659, "ELEMENT_SET_NO": 999, "REV_AT_EPOCH": 7524, "BSTAR": 0, "MEAN_MOTION_DOT": 2.4e-07, "MEAN_MOTION_DDOT": 0}, "tle": {"line1": "1 28659U 05019A   25350.36228272  .00000024  00000+0  00000+0 0  9996", "line2": "2 28659   0.0155 313.2007 0002880 320.2388 183.1979  1.00272712 75241"}}, "geometry": {"type": "Point", "coordinates": [-68.51531354822971, -0.01985869160664793]}}, {"type": "Feature", "properties": {"norad_id": 28702, "name": "GALAXY 28 (G-28)", "group": "intelsat", "lat": -2.4755608390030774, "lon": -38.18346266954286, "alt_km": 35779.07309823238, "timestamp": "2025-12-16T21:38:56.837603+00:00", "meta": {"OBJECT_NAME": "GALAXY 28 (G-28)", "OBJECT_ID": "2005-022A", "EPOCH": "2025-12-16T07:07:38.595072", "MEAN_MOTION": 1.00271072, "ECCENTRICITY": 0.00028748, "INCLINATION": 2.8283, "RA_OF_ASC_NODE": 81.2412, "ARG_OF_PERICENTER": 189.1249, "MEAN_ANOMALY": 193.0403, "EPHEMERIS_TYPE": 0, "CLASSIFICATION_TYPE": "U", "NORAD_CAT_ID": 28702, "ELEMENT_SET_NO": 999, "REV_AT_EPOCH": 5014, "BSTAR": 0, "MEAN_MOTION_DOT": -1.66e-06, "MEAN_MOTION_DDOT": 0}, "tle": {"line1": "1 28702U 05022A   25350.29697448 -.00000166  00000+0  00000+0 0  9994", "line2": "2 28702   2.8283  81.2412 0002874 189.1249 193.0403  1.00271072 50147"}}, "geometry": {"type": "Point", "coordinates": [-38.18346266954286, -2.4755608390030774]}}, {"type": "Feature", "properties": {"norad_id": 29236, "name": "GALAXY 16 (G-16)", "group": "intelsat", "lat": 0.008282226911703537, "lon": -48.466179983308486, "alt_km": 35779.16444606664, "timestamp": "2025-12-16T21:38:56.837615+00:00", "meta": {"OBJECT_NAME": "GALAXY 16 (G-16)", "OBJECT_ID": "2006-023A", "EPOCH": "2025-12-16T08:56:13.474752", "MEAN_MOTION": 1.002724, "ECCENTRICITY": 0.0002481, "INCLINATION": 0.0338, "RA_OF_ASC_NODE": 222.0356, "ARG_OF_PERICENTER": 39.4977, "MEAN_ANOMALY": 218.7867, "EPHEMERIS_TYPE": 0, "CLASSIFICATION_TYPE": "U", "NORAD_CAT_ID": 29236, "ELEMENT_SET_NO": 999, "REV_AT_EPOCH": 7114, "BSTAR": 0, "MEAN_MOTION_DOT": -1.03e-06, "MEAN_MOTION_DDOT": 0}, "tle": {"line1": "1 29236U 06023A   25350.37237818 -.00000103  00000+0  00000+0 0  9990", "line2": "2 29236   0.0338 222.0356 0002481  39.4977 218.7867  1.00272400 71140"}}, "geometry": {"type": "Point", "coordinates": [-48.466179983308486, 0.008282226911703537]}}, {"type": "Feature", "properties": {"norad_id": 29494, "name": "DIRECTV 9S", "group": "intelsat", "lat": -1.4209789337046006, "lon": -50.69200252842024, "alt_km": 35776.928281626555, "timestamp": "2025-12-16T21:38:56.837627+00:00", "meta": {"OBJECT_NAME": "DIRECTV 9S", "OBJECT_ID": "2006-043A", "EPOCH": "2025-12-16T08:54:42.303744", "MEAN_MOTION": 1.00271959, "ECCENTRICITY": 0.00028452, "INCLINATION": 1.9493, "RA_OF_ASC_NODE": 83.1742, "ARG_OF_PERICENTER": 186.7399, "MEAN_ANOMALY": 207.8139, "EPHEMERIS_TYPE": 0, "CLASSIFICATION_TYPE": "U", "NORAD_CAT_ID": 29494, "ELEMENT_SET_NO": 999, "REV_AT_EPOCH": 4955, "BSTAR": 0, "MEAN_MOTION_DOT": -9.1e-07, "MEAN_MOTION_DDOT": 0}, "tle": {"line1": "1 29494U 06043A   25350.37132296 -.00000091  00000+0  00000+0 0  9998", "line2": "2 29494   1.9493  83.1742 0002845 186.7399 207.8139  1.00271959 49550"}}, "geometry": {"type": "Point", "coordinates": [-50.69200252842024, -1.4209789337046006]}}, {"type": "Feature", "properties": {"norad_id": 31307, "name": "GALAXY 17 (G-17)", "group": "intelsat", "lat": -2.2521762531446976, "lon": -34.41824691907232, "alt_km": 35780.587700476, "timestamp": "2025-12-16T21:38:56.837639+00:00", "meta": {"OBJECT_NAME": "GALAXY 17 (G-17)", "OBJECT_ID": "2007-016B", "EPOCH": "2025-12-16T06:06:12.038400", "MEAN_MOTION": 1.00272151, "ECCENTRICITY": 0.00055814, "INCLINATION": 2.5088, "RA_OF_ASC_NODE": 82.2461, "ARG_OF_PERICENTER": 167.2407, "MEAN_ANOMALY": 202.236, "EPHEMERIS_TYPE": 0, "CLASSIFICATION_TYPE": "U", "NORAD_CAT_ID": 31307, "ELEMENT_SET_NO": 999, "REV_AT_EPOCH": 6797, "BSTAR": 0, "MEAN_MOTION_DOT": -1.85e-06, "MEAN_MOTION_DDOT": 0}, "tle": {"line1": "1 31307U 07016B   25350.25430600 -.00000185  00000+0  00000+0 0  9996", "line2": "2 31307   2.5088  82.2461 0005581 167.2407 202.2360  1.00272151 67971"}}, "geometry": {"type": "Point", "coordinates": [-34.41824691907232, -2.2521762531446976]}}, {"type": "Feature", "properties": {"norad_id": 31862, "name": "DIRECTV 10", "group": "intelsat", "lat": -0.002137735351823214, "lon": -52.28055423346501, "alt_km": 35786.95927539346, "timestamp": "2025-12-16T21:38:56.837652+00:00", "meta": {"OBJECT_NAME": "DIRECTV 10", "OBJECT_ID": "2007-032A", "EPOCH": "2025-12-16T08:53:36.907584", "MEAN_MOTION": 1.00269687, "ECCENTRICITY": 4.16e-05, "INCLINATION": 0.0032, "RA_OF_ASC_NODE": 262.8914, "ARG_OF_PERICENTER": 305.2791, "MEAN_ANOMALY": 267.7033, "EPHEMERIS_TYPE": 0, "CLASSIFICATION_TYPE": "U", "NORAD_CAT_ID": 31862, "ELEMENT_SET_NO": 999, "REV_AT_EPOCH": 4376, "BSTAR": 0, "MEAN_MOTION_DOT": -7.9e-07, "MEAN_MOTION_DDOT": 0}, "tle": {"line1": "1 31862U 07032A   25350.37056606 -.00000079  00000+0  00000+0 0  9995", "line2": "2 31862   0.0032 262.8914 0000416 305.2791 267.7033  1.00269687 43764"}}, "geometry": {"type": "Point", "coordinates": [-52.28055423346501, -0.002137735351823214]}}, {"type": "Feature", "properties": {"norad_id": 32253, "name": "INTELSAT 11 (IS-11)", "group": "intelsat", "lat": 0.1380072868298223, "lon": -102.10214822687158, "alt_km": 36095.441346477535, "timestamp": "2025-12-16T21:38:56.837663+00:00", "meta": {"OBJECT_NAME": "INTELSAT 11 (IS-11)", "OBJECT_ID": "2007-044B", "EPOCH": "2025-12-16T08:19:37.839072", "MEAN_MOTION": 0.99050544, "ECCENTRICITY": 0.00086502, "INCLINATION": 3.0893, "RA_OF_ASC_NODE": 80.9368, "ARG_OF_PERICENTER": 167.3061, "MEAN_ANOMALY": 171.705, "EPHEMERIS_TYPE": 0, "CLASSIFICATION_TYPE": "U", "NORAD_CAT_ID": 32253, "ELEMENT_SET_NO": 999, "REV_AT_EPOCH": 6663, "BSTAR": 0, "MEAN_MOTION_DOT": 4e-07, "MEAN_MOTION_DDOT": 0}, "tle": {"line1": "1 32253U 07044B   25350.34696573  .00000040  00000+0  00000+0 0  9990", "line2": "2 32253   3.0893  80.9368 0008650 167.3061 171.7050  0.99050544 66635"}}, "geometry": {"type": "Point", "coordinates": [-102.10214822687158, 0.1380072868298223]}}, {"type": "Feature", "properties": {"norad_id": 32388, "name": "HORIZONS-2", "group": "intelsat", "lat": -2.050976324489797, "lon": -23.238055453597344, "alt_km": 35777.37367257789, "timestamp": "2025-12-16T21:38:56.837675+00:00", "meta": {"OBJECT_NAME": "HORIZONS-2", "OBJECT_ID": "2007-063B", "EPOCH": "2025-12-16T06:09:26.726976", "MEAN_MOTION": 1.00273324, "ECCENTRICITY": 0.00045892, "INCLINATION": 2.1304, "RA_OF_ASC_NODE": 82.9268, "ARG_OF_PERICENTER": 190.225, "MEAN_ANOMALY": 190.5662, "EPHEMERIS_TYPE": 0, "CLASSIFICATION_TYPE": "U", "NORAD_CAT_ID": 32388, "ELEMENT_SET_NO": 999, "REV_AT_EPOCH": 6598, "BSTAR": 0, "MEAN_MOTION_DOT": -2.32e-06, "MEAN_MOTION_DDOT": 0}, "tle": {"line1": "1 32388U 07063B   25350.25655934 -.00000232  00000+0  00000+0 0  9990", "line2": "2 32388   2.1304  82.9268 0004589 190.2250 190.5662  1.00273324 65985"}}, "geometry": {"type": "Point", "coordinates": [-23.238055453597344, -2.050976324489797]}}, {"type": "Feature", "properties": {"norad_id": 32729, "name": "DIRECTV 11", "group": "intelsat", "lat": 0.0017354940209832132, "lon": -48.669961652785005, "alt_km": 35787.656432759155, "timestamp": "2025-12-16T21:38:56.837688+00:00", "meta": {"OBJECT_NAME": "DIRECTV 11", "OBJECT_ID": "2008-013A", "EPOCH": "2025-12-16T08:56:13.459200", "MEAN_MOTION": 1.00271642, "ECCENTRICITY": 4.406e-05, "INCLINATION": 0.0417, "RA_OF_ASC_NODE": 178.0772, "ARG_OF_PERICENTER": 347.8067, "MEAN_ANOMALY": 314.2527, "EPHEMERIS_TYPE": 0, "CLASSIFICATION_TYPE": "U", "NORAD_CAT_ID": 32729, "ELEMENT_SET_NO": 999, "REV_AT_EPOCH": 4376, "BSTAR": 0, "MEAN_MOTION_DOT": -1.02e-06, "MEAN_MOTION_DDOT": 0}, "tle": {"line1": "1 32729U 08013A   25350.37237800 -.00000102  00000+0  00000+0 0  9992", "line2": "2 32729   0.0417 178.0772 0000440 347.8067 314.2527  1.00271642 43769"}}, "geometry": {"type": "Point", "coordinates": [-48.669961652785005, 0.0017354940209832132]}}, {"type": "Feature", "properties": {"norad_id": 32951, "name": "GALAXY 18 (G-18)", "group": "intelsat", "lat": -0.04441138881701231, "lon": -72.49797588677549, "alt_km": 35774.40887504963, "timestamp": "2025-12-16T21:38:56.837700+00:00", "meta": {"OBJECT_NAME": "GALAXY 18 (G-18)", "OBJECT_ID": "2008-024A", "EPOCH": "2025-12-16T08:39:05.507424", "MEAN_MOTION": 1.00271718, "ECCENTRICITY": 0.00028384, "INCLINATION": 0.0247, "RA_OF_ASC_NODE": 8.9546, "ARG_OF_PERICENTER": 264.7509, "MEAN_ANOMALY": 178.3029, "EPHEMERIS_TYPE": 0, "CLASSIFICATION_TYPE": "U", "NORAD_CAT_ID": 32951, "ELEMENT_SET_NO": 999, "REV_AT_EPOCH": 4402, "BSTAR": 0, "MEAN_MOTION_DOT": 0, "MEAN_MOTION_DDOT": 0}, "tle": {"line1": "1 32951U 08024A   25350.36048041  .00000000  00000+0  00000+0 0  9993", "line2": "2 32951   0.0247   8.9546 0002838 264.7509 178.3029  1.00271718 44028"}}, "geometry": {"type": "Point", "coordinates": [-72.49797588677549, -0.04441138881701231]}}]}